{
  "type": "FeatureCollection",
  "features": [
    {
      "type": "Feature",
      "properties": {
        "norad_id": 34036,
        "name": "COSMOS 2251 DEB",
        "group": "cosmos-2251-debris",
        "lat": -5.353933768112456,
        "lon": -46.84643438751989,
        "alt_km": 577.0508585933985,
        "timestamp": "2025-12-21T11:31:43.252967+00:00",
        "meta_object_name": "COSMOS 2251 DEB",
        "meta_object_id": "1993-036HX",
        "meta_epoch": "2025-12-20T18:38:54.070080",
        "meta_mean_motion": 14.9554893,
        "meta_eccentricity": 0.00108379,
        "meta_inclination": 74.0192,
        "meta_ra_of_asc_node": 133.035,
        "meta_arg_of_pericenter": 162.4424,
        "meta_mean_anomaly": 197.7137,
        "meta_ephemeris_type": 0,
        "meta_classification_type": "U",
        "meta_norad_cat_id": 34036,
        "meta_element_set_no": 999,
        "meta_rev_at_epoch": 88690,
        "meta_bstar": 0.0022969867,
        "meta_mean_motion_dot": 0.00025561,
        "meta_mean_motion_ddot": 0,
        "tle_line1": "1 34036U 93036HX  25354.77701470  .00025561  00000+0  22970-2 0  9999",
        "tle_line2": "2 34036  74.0192 133.0350 0010837 162.4424 197.7137 14.95548930886902"
      },
      "geometry": {
        "type": "Point",
        "coordinates": [
          -46.84643438751989,
          -5.353933768112456
        ]
      }
    },
    {
      "type": "Feature",
      "properties": {
        "norad_id": 34037,
        "name": "COSMOS 2251 DEB",
        "group": "cosmos-2251-debris",
        "lat": 38.72004746962875,
        "lon": -158.80857098722285,
        "alt_km": 752.8309138814102,
        "timestamp": "2025-12-21T11:31:43.252977+00:00",
        "meta_object_name": "COSMOS 2251 DEB",
        "meta_object_id": "1993-036HY",
        "meta_epoch": "2025-12-21T04:11:33.044928",
        "meta_mean_motion": 14.34684426,
        "meta_eccentricity": 0.0051815,
        "meta_inclination": 74.0511,
        "meta_ra_of_asc_node": 35.0045,
        "meta_arg_of_pericenter": 82.3827,
        "meta_mean_anomaly": 278.3206,
        "meta_ephemeris_type": 0,
        "meta_classification_type": "U",
        "meta_norad_cat_id": 34037,
        "meta_element_set_no": 999,
        "meta_rev_at_epoch": 87838,
        "meta_bstar": 0.00029852,
        "meta_mean_motion_dot": 8.32e-06,
        "meta_mean_motion_ddot": 0,
        "tle_line1": "1 34037U 93036HY  25355.17468802  .00000832  00000+0  29852-3 0  9995",
        "tle_line2": "2 34037  74.0511  35.0045 0051815  82.3827 278.3206 14.34684426878388"
      },
      "geometry": {
        "type": "Point",
        "coordinates": [
          -158.80857098722285,
          38.72004746962875
        ]
      }
    },
    {
      "type": "Feature",
      "properties": {
        "norad_id": 34040,
        "name": "COSMOS 2251 DEB",
        "group": "cosmos-2251-debris",
        "lat": 65.69733810264675,
        "lon": -168.16567539427928,
        "alt_km": 1057.9796200883793,
        "timestamp": "2025-12-21T11:31:43.252987+00:00",
        "meta_object_name": "COSMOS 2251 DEB",
        "meta_object_id": "1993-036JB",
        "meta_epoch": "2025-12-21T04:00:07.817760",
        "meta_mean_motion": 13.68386723,
        "meta_eccentricity": 0.0343336,
        "meta_inclination": 73.9556,
        "meta_ra_of_asc_node": 51.9384,
        "meta_arg_of_pericenter": 3.5907,
        "meta_mean_anomaly": 356.7551,
        "meta_ephemeris_type": 0,
        "meta_classification_type": "U",
        "meta_norad_cat_id": 34040,
        "meta_element_set_no": 999,
        "meta_rev_at_epoch": 83715,
        "meta_bstar": 0.00051474,
        "meta_mean_motion_dot": 6.41e-06,
        "meta_mean_motion_ddot": 0,
        "tle_line1": "1 34040U 93036JB  25355.16675715  .00000641  00000+0  51474-3 0  9994",
        "tle_line2": "2 34040  73.9556  51.9384 0343336   3.5907 356.7551 13.68386723837157"
      },
      "geometry": {
        "type": "Point",
        "coordinates": [
          -168.16567539427928,
          65.69733810264675
        ]
      }
    },
    {
      "type": "Feature",
      "properties": {
        "norad_id": 34045,
        "name": "COSMOS 2251 DEB",
        "group": "cosmos-2251-debris",
        "lat": 14.70229336110683,
        "lon": 110.53230174157711,
        "alt_km": 794.544264824669,
        "timestamp": "2025-12-21T11:31:43.252998+00:00",
        "meta_object_name": "COSMOS 2251 DEB",
        "meta_object_id": "1993-036JG",
        "meta_epoch": "2025-12-20T21:37:53.851008",
        "meta_mean_motion": 14.34072981,
        "meta_eccentricity": 0.0026002,
        "meta_inclination": 74.0395,
        "meta_ra_of_asc_node": 295.8978,
        "meta_arg_of_pericenter": 17.117,
        "meta_mean_anomaly": 39.1043,
        "meta_ephemeris_type": 0,
        "meta_classification_type": "U",
        "meta_norad_cat_id": 34045,
        "meta_element_set_no": 999,
        "meta_rev_at_epoch": 88150,
        "meta_bstar": 6.9311e-05,
        "meta_mean_motion_dot": 1.68e-06,
        "meta_mean_motion_ddot": 0,
        "tle_line1": "1 34045U 93036JG  25354.90131772  .00000168  00000+0  69311-4 0  9994",
        "tle_line2": "2 34045  74.0395 295.8978 0026002  17.1170  39.1043 14.34072981881502"
      },
      "geometry": {
        "type": "Point",
        "coordinates": [
          110.53230174157711,
          14.70229336110683
        ]
      }
    },
    {
      "type": "Feature",
      "properties": {
        "norad_id": 34046,
        "name": "COSMOS 2251 DEB",
        "group": "cosmos-2251-debris",
        "lat": -4.950073175532551,
        "lon": 175.57346767983984,
        "alt_km": 758.0091745114714,
        "timestamp": "2025-12-21T11:31:43.253008+00:00",
        "meta_object_name": "COSMOS 2251 DEB",
        "meta_object_id": "1993-036JH",
        "meta_epoch": "2025-12-20T01:44:37.329792",
        "meta_mean_motion": 14.46526924,
        "meta_eccentricity": 0.00744564,
        "meta_inclination": 74.0389,
        "meta_ra_of_asc_node": 356.7805,
        "meta_arg_of_pericenter": 78.006,
        "meta_mean_anomaly": 338.5486,
        "meta_ephemeris_type": 0,
        "meta_classification_type": "U",
        "meta_norad_cat_id": 34046,
        "meta_element_set_no": 999,
        "meta_rev_at_epoch": 87932,
        "meta_bstar": 0.00078666467,
        "meta_mean_motion_dot": 2.906e-05,
        "meta_mean_motion_ddot": 0,
        "tle_line1": "1 34046U 93036JH  25354.07265428  .00002906  00000+0  78666-3 0  9993",
        "tle_line2": "2 34046  74.0389 356.7805 0074456  78.0060 338.5486 14.46526924879320"
      },
      "geometry": {
        "type": "Point",
        "coordinates": [
          175.57346767983984,
          -4.950073175532551
        ]
      }
    },
    {
      "type": "Feature",
      "properties": {
        "norad_id": 34050,
        "name": "COSMOS 2251 DEB",
        "group": "cosmos-2251-debris",
        "lat": -72.72025068443932,
        "lon": -71.43216575144874,
        "alt_km": 1032.9552298584376,
        "timestamp": "2025-12-21T11:31:43.253019+00:00",
        "meta_object_name": "COSMOS 2251 DEB",
        "meta_object_id": "1993-036JM",
        "meta_epoch": "2025-12-20T17:32:29.256288",
        "meta_mean_motion": 13.96197358,
        "meta_eccentricity": 0.02146949,
        "meta_inclination": 74.0882,
        "meta_ra_of_asc_node": 356.3442,
        "meta_arg_of_pericenter": 58.6067,
        "meta_mean_anomaly": 54.2106,
        "meta_ephemeris_type": 0,
        "meta_classification_type": "U",
        "meta_norad_cat_id": 34050,
        "meta_element_set_no": 999,
        "meta_rev_at_epoch": 85543,
        "meta_bstar": 0.0005258601,
        "meta_mean_motion_dot": 8.56e-06,
        "meta_mean_motion_ddot": 0,
        "tle_line1": "1 34050U 93036JM  25354.73089417  .00000856  00000+0  52586-3 0  9998",
        "tle_line2": "2 34050  74.0882 356.3442 0214694  58.6067  54.2106 13.96197358855433"
      },
      "geometry": {
        "type": "Point",
        "coordinates": [
          -71.43216575144874,
          -72.72025068443932
        ]
      }
    },
    {
      "type": "Feature",
      "properties": {
        "norad_id": 34053,
        "name": "COSMOS 2251 DEB",
        "group": "cosmos-2251-debris",
        "lat": -30.377504330661026,
        "lon": 57.87001956839956,
        "alt_km": 1381.8676196473289,
        "timestamp": "2025-12-21T11:31:43.253029+00:00",
        "meta_object_name": "COSMOS 2251 DEB",
        "meta_object_id": "1993-036JQ",
        "meta_epoch": "2025-12-20T16:41:14.361504",
        "meta_mean_motion": 13.49172922,
        "meta_eccentricity": 0.04226751,
        "meta_inclination": 73.8433,
        "meta_ra_of_asc_node": 229.3517,
        "meta_arg_of_pericenter": 16.5958,
        "meta_mean_anomaly": 344.8501,
        "meta_ephemeris_type": 0,
        "meta_classification_type": "U",
        "meta_norad_cat_id": 34053,
        "meta_element_set_no": 999,
        "meta_rev_at_epoch": 82791,
        "meta_bstar": 0.00050236834,
        "meta_mean_motion_dot": 5.27e-06,
        "meta_mean_motion_ddot": 0,
        "tle_line1": "1 34053U 93036JQ  25354.69530511  .00000527  00000+0  50237-3 0  9998",
        "tle_line2": "2 34053  73.8433 229.3517 0422675  16.5958 344.8501 13.49172922827916"
      },
      "geometry": {
        "type": "Point",
        "coordinates": [
          57.87001956839956,
          -30.377504330661026
        ]
      }
    }
  ]
}